OBJECT_NAME,OBJECT_ID,EPOCH,MEAN_MOTION,ECCENTRICITY,INCLINATION,RA_OF_ASC_NODE,ARG_OF_PERICENTER,MEAN_ANOMALY,EPHEMERIS_TYPE,CLASSIFICATION_TYPE,NORAD_CAT_ID,ELEMENT_SET_NO,REV_AT_EPOCH,BSTAR,MEAN_MOTION_DOT,MEAN_MOTION_DDOT
STARLINK-34059,2025-094J,2026-07-11T14:58:27.986592,14.98349467,.0002335,70.0037,282.1263,273.7509,86.3383,0,U,63872,999,6576,.61793E-3,.7291E-4,0
STARLINK-33987,2025-094K,2026-07-11T06:09:43.725312,14.98333399,.00034527,70.0010,282.8503,268.7255,91.3509,0,U,63873,999,6571,.11903184E-3,.1328E-4,0
STARLINK-34052,2025-094L,2026-07-11T16:28:37.144992,14.98329544,.0002617,70.0039,281.9426,286.4870,73.6001,0,U,63874,999,6577,.96761E-4,.1062E-4,0
STARLINK-34023,2025-094M,2026-07-11T17:16:39.056736,14.98336157,.0004475,70.0014,281.6539,255.4088,104.6575,0,U,63875,999,6577,.20045E-3,.23E-4,0
STARLINK-33778,2025-094P,2026-07-11T16:10:49.103616,14.98343427,.0003765,70.0020,281.8937,277.2538,82.8193,0,U,63877,999,6577,.28936E-3,.3363E-4,0
STARLINK-33901,2025-094Q,2026-07-11T14:58:45.002208,14.98319692,.0003075,70.0028,282.1201,275.6336,84.4472,0,U,63878,999,6576,.1734E-4,.114E-5,0
STARLINK-33812,2025-094R,2026-07-11T15:58:33.437856,14.98334503,.0003638,70.0011,281.8621,271.2021,88.8721,0,U,63879,999,6577,.17485E-3,.1994E-4,0
STARLINK-33779,2025-094S,2026-07-11T16:22:35.014944,14.98358099,.0003764,70.0016,281.9294,274.2419,85.8310,0,U,63880,999,6577,.29299E-3,.3407E-4,0
STARLINK-33905,2025-094T,2026-07-11T15:22:29.398656,14.98336626,.0003739,70.0011,281.7791,269.0427,91.0303,0,U,63881,999,6577,.9937E-4,.1093E-4,0
STARLINK-34003,2025-094U,2026-07-11T12:26:03.693120,15.44769729,.00041972,70.0039,230.8375,263.8818,96.1887,0,U,63882,999,6703,.50010773E-3,.23395E-3,0
STARLINK-33943,2025-094W,2026-07-11T15:16:28.846272,14.98335587,.0004379,70.0000,281.7659,273.7332,86.3326,0,U,63884,999,6577,.25251E-3,.2922E-4,0
STARLINK-33858,2025-094X,2026-07-11T15:52:32.778336,14.98335287,.0003707,70.0013,281.8515,269.6774,90.3960,0,U,63885,999,6577,.20048E-3,.23E-4,0
STARLINK-33885,2025-094Y,2026-07-11T15:28:30.166176,14.98332128,.0003739,70.0012,281.7915,268.9103,91.1628,0,U,63886,999,6577,.13837E-3,.1558E-4,0
STARLINK-33904,2025-094Z,2026-07-11T15:22:43.817952,14.98337497,.0003563,70.0005,281.7766,271.6836,88.3915,0,U,63887,999,6577,.18198E-3,.2079E-4,0
STARLINK-33981,2025-094AA,2026-07-11T16:16:49.539360,14.98334223,.0003462,70.0015,281.9081,265.9171,94.1593,0,U,63888,999,6577,.12407E-3,.1388E-4,0
STARLINK-33738,2025-094AB,2026-07-11T15:58:47.559072,14.98334355,.000369,70.0013,281.8405,269.4188,90.6548,0,U,63889,999,6599,.17587E-3,.2006E-4,0
STARLINK-34116,2025-095A,2026-07-11T01:25:03.567648,15.27569500,.00012975,42.9987,199.6586,243.2382,116.8337,0,U,63890,999,6665,.36022396E-3,.966E-4,0
STARLINK-34123,2025-095B,2026-07-11T09:36:11.231136,15.27601779,.00026832,43.0059,197.9259,270.3825,89.6720,0,U,63891,999,6670,.34692817E-3,.9303E-4,0
STARLINK-33972,2025-095D,2026-07-10T12:40:41.796192,15.27602207,.0001487,42.9995,202.5543,276.8090,83.2592,0,U,63893,999,6657,.45236E-3,.12215E-3,0
STARLINK-33973,2025-095E,2026-07-11T08:12:55.200384,15.27604463,.00025194,43.0020,197.4860,295.9846,64.0746,0,U,63894,999,6670,.34836678E-3,.9344E-4,0
STARLINK-34119,2025-095F,2026-07-11T01:34:17.320800,15.27603302,.00052008,43.0007,199.7031,280.9156,79.1111,0,U,63895,999,6665,.32105332E-3,.8591E-4,0
STARLINK-34143,2025-095G,2026-07-11T10:22:13.865952,15.27594804,.00020591,43.0006,197.2966,281.8039,78.2581,0,U,63896,999,6671,.32594033E-3,.8722E-4,0
STARLINK-33957,2025-095H,2026-07-11T01:39:51.973056,15.27595502,.00014683,43.0015,199.7366,257.3553,102.7134,0,U,63897,999,6664,.28434216E-3,.7574E-4,0
STARLINK-34120,2025-095J,2026-07-11T09:41:30.842016,15.27585179,.00024565,43.0043,197.0854,282.0587,77.9989,0,U,63898,999,6671,.25645963E-3,.6803E-4,0
STARLINK-34134,2025-095K,2026-07-11T10:44:26.013120,15.27583343,.00020195,42.9997,197.4149,294.3481,65.7159,0,U,63899,999,6671,.27379357E-3,.728E-4,0
STARLINK-34118,2025-095L,2026-07-11T09:19:32.366784,15.27567533,.00036648,43.0052,197.8307,263.2247,96.8187,0,U,63900,999,6670,.25469152E-3,.675E-4,0
STARLINK-34125,2025-095M,2026-07-11T10:33:20.219904,15.27588322,.00017196,42.9979,197.3530,290.3842,69.6825,0,U,63901,999,6670,.20470303E-3,.5376E-4,0
STARLINK-33955,2025-095N,2026-07-11T09:50:46.902912,15.27588364,.00021281,43.0022,197.1335,288.0750,71.9870,0,U,63902,999,6670,.54612994E-3,.148E-3,0
STARLINK-34097,2025-095P,2026-07-11T10:18:32.736384,15.27576015,.00017588,42.9996,197.2745,276.4316,83.6335,0,U,63903,999,6670,.25206625E-3,.668E-4,0
